[{"OBJECT_NAME":"STARLINK-34902","OBJECT_ID":"2025-189D","EPOCH":"2025-09-14T06:00:02.000160","MEAN_MOTION":15.62273012,"ECCENTRICITY":8.882e-5,"INCLINATION":53.1598,"RA_OF_ASC_NODE":310.9711,"ARG_OF_PERICENTER":121.6049,"MEAN_ANOMALY":5.5092,"EPHEMERIS_TYPE":0,"CLASSIFICATION_TYPE":"U","NORAD_CAT_ID":65326,"ELEMENT_SET_NO":999,"REV_AT_EPOCH":406,"BSTAR":0.0011660178,"MEAN_MOTION_DOT":0.00105612,"MEAN_MOTION_DDOT":0},{"OBJECT_NAME":"STARLINK-34880","OBJECT_ID":"2025-189E","EPOCH":"2025-09-14T06:00:02.000160","MEAN_MOTION":15.6190366,"ECCENTRICITY":0.00011917,"INCLINATION":53.1599,"RA_OF_ASC_NODE":310.9921,"ARG_OF_PERICENTER":70.4965,"MEAN_ANOMALY":47.036,"EPHEMERIS_TYPE":0,"CLASSIFICATION_TYPE":"U","NORAD_CAT_ID":65327,"ELEMENT_SET_NO":999,"REV_AT_EPOCH":406,"BSTAR":-0.020120088,"MEAN_MOTION_DOT":-0.01581384,"MEAN_MOTION_DDOT":0},{"OBJECT_NAME":"STARLINK-34885","OBJECT_ID":"2025-189F","EPOCH":"2025-09-14T06:00:02.000160","MEAN_MOTION":15.61904887,"ECCENTRICITY":0.00011714,"INCLINATION":53.1596,"RA_OF_ASC_NODE":310.9879,"ARG_OF_PERICENTER":68.3693,"MEAN_ANOMALY":51.0787,"EPHEMERIS_TYPE":0,"CLASSIFICATION_TYPE":"U","NORAD_CAT_ID":65328,"ELEMENT_SET_NO":999,"REV_AT_EPOCH":400,"BSTAR":-0.020132656,"MEAN_MOTION_DOT":-0.01582317,"MEAN_MOTION_DDOT":0},{"OBJECT_NAME":"STARLINK-34908","OBJECT_ID":"2025-189G","EPOCH":"2025-09-14T06:00:02.000160","MEAN_MOTION":15.61903776,"ECCENTRICITY":0.00012131,"INCLINATION":53.1597,"RA_OF_ASC_NODE":310.9761,"ARG_OF_PERICENTER":68.3333,"MEAN_ANOMALY":56.8654,"EPHEMERIS_TYPE":0,"CLASSIFICATION_TYPE":"U","NORAD_CAT_ID":65329,"ELEMENT_SET_NO":999,"REV_AT_EPOCH":406,"BSTAR":-0.020104384,"MEAN_MOTION_DOT":-0.01580307,"MEAN_MOTION_DDOT":0},{"OBJECT_NAME":"STARLINK-34864","OBJECT_ID":"2025-189H","EPOCH":"2025-09-14T06:00:02.000160","MEAN_MOTION":15.61901392,"ECCENTRICITY":0.00011026,"INCLINATION":53.1599,"RA_OF_ASC_NODE":310.9596,"ARG_OF_PERICENTER":71.8189,"MEAN_ANOMALY":61.0498,"EPHEMERIS_TYPE":0,"CLASSIFICATION_TYPE":"U","NORAD_CAT_ID":65330,"ELEMENT_SET_NO":999,"REV_AT_EPOCH":406,"BSTAR":-0.0201011,"MEAN_MOTION_DOT":-0.01579888,"MEAN_MOTION_DDOT":0},{"OBJECT_NAME":"STARLINK-34918","OBJECT_ID":"2025-189J","EPOCH":"2025-09-14T06:00:02.000160","MEAN_MOTION":15.61904553,"ECCENTRICITY":0.00012662,"INCLINATION":53.1602,"RA_OF_ASC_NODE":310.8794,"ARG_OF_PERICENTER":70.0457,"MEAN_ANOMALY":101.5617,"EPHEMERIS_TYPE":0,"CLASSIFICATION_TYPE":"U","NORAD_CAT_ID":65331,"ELEMENT_SET_NO":999,"REV_AT_EPOCH":400,"BSTAR":-0.020127675,"MEAN_MOTION_DOT":-0.01582002,"MEAN_MOTION_DDOT":0},{"OBJECT_NAME":"STARLINK-33890","OBJECT_ID":"2025-189K","EPOCH":"2025-09-14T06:00:02.000160","MEAN_MOTION":15.6190423,"ECCENTRICITY":0.00012457,"INCLINATION":53.1601,"RA_OF_ASC_NODE":310.8715,"ARG_OF_PERICENTER":71.5903,"MEAN_ANOMALY":103.8515,"EPHEMERIS_TYPE":0,"CLASSIFICATION_TYPE":"U","NORAD_CAT_ID":65332,"ELEMENT_SET_NO":999,"REV_AT_EPOCH":400,"BSTAR":-0.020129777,"MEAN_MOTION_DOT":-0.01582119,"MEAN_MOTION_DDOT":0},{"OBJECT_NAME":"STARLINK-34602","OBJECT_ID":"2025-189L","EPOCH":"2025-09-14T06:00:02.000160","MEAN_MOTION":15.61904901,"ECCENTRICITY":0.00012469,"INCLINATION":53.1602,"RA_OF_ASC_NODE":310.8868,"ARG_OF_PERICENTER":72.0722,"MEAN_ANOMALY":95.9711,"EPHEMERIS_TYPE":0,"CLASSIFICATION_TYPE":"U","NORAD_CAT_ID":65333,"ELEMENT_SET_NO":999,"REV_AT_EPOCH":406,"BSTAR":-0.020139389,"MEAN_MOTION_DOT":-0.01582827,"MEAN_MOTION_DDOT":0},{"OBJECT_NAME":"STARLINK-34878","OBJECT_ID":"2025-189M","EPOCH":"2025-09-14T06:00:02.000160","MEAN_MOTION":15.61905307,"ECCENTRICITY":0.0001125,"INCLINATION":53.1599,"RA_OF_ASC_NODE":310.9677,"ARG_OF_PERICENTER":67.4809,"MEAN_ANOMALY":61.5501,"EPHEMERIS_TYPE":0,"CLASSIFICATION_TYPE":"U","NORAD_CAT_ID":65334,"ELEMENT_SET_NO":999,"REV_AT_EPOCH":406,"BSTAR":-0.020150605,"MEAN_MOTION_DOT":-0.01583565,"MEAN_MOTION_DDOT":0},{"OBJECT_NAME":"STARLINK-34874","OBJECT_ID":"2025-189N","EPOCH":"2025-09-14T06:00:02.000160","MEAN_MOTION":15.61905274,"ECCENTRICITY":0.00013402,"INCLINATION":53.1602,"RA_OF_ASC_NODE":310.8745,"ARG_OF_PERICENTER":75.5309,"MEAN_ANOMALY":97.9943,"EPHEMERIS_TYPE":0,"CLASSIFICATION_TYPE":"U","NORAD_CAT_ID":65335,"ELEMENT_SET_NO":999,"REV_AT_EPOCH":406,"BSTAR":-0.020139657,"MEAN_MOTION_DOT":-0.01582917,"MEAN_MOTION_DDOT":0},{"OBJECT_NAME":"STARLINK-34835","OBJECT_ID":"2025-189P","EPOCH":"2025-09-14T06:00:02.000160","MEAN_MOTION":15.61906466,"ECCENTRICITY":0.00012716,"INCLINATION":53.1604,"RA_OF_ASC_NODE":310.9437,"ARG_OF_PERICENTER":68.8041,"MEAN_ANOMALY":71.7275,"EPHEMERIS_TYPE":0,"CLASSIFICATION_TYPE":"U","NORAD_CAT_ID":65336,"ELEMENT_SET_NO":999,"REV_AT_EPOCH":406,"BSTAR":-0.020153226,"MEAN_MOTION_DOT":-0.0158389,"MEAN_MOTION_DDOT":0},{"OBJECT_NAME":"STARLINK-34854","OBJECT_ID":"2025-189Q","EPOCH":"2025-09-14T06:00:02.000160","MEAN_MOTION":15.61903214,"ECCENTRICITY":0.00011456,"INCLINATION":53.1602,"RA_OF_ASC_NODE":310.9406,"ARG_OF_PERICENTER":70.1713,"MEAN_ANOMALY":72.2787,"EPHEMERIS_TYPE":0,"CLASSIFICATION_TYPE":"U","NORAD_CAT_ID":65337,"ELEMENT_SET_NO":999,"REV_AT_EPOCH":400,"BSTAR":-0.020100161,"MEAN_MOTION_DOT":-0.01579945,"MEAN_MOTION_DDOT":0},{"OBJECT_NAME":"STARLINK-34751","OBJECT_ID":"2025-189R","EPOCH":"2025-09-14T06:00:02.000160","MEAN_MOTION":15.61905608,"ECCENTRICITY":0.00011815,"INCLINATION":53.1602,"RA_OF_ASC_NODE":310.9358,"ARG_OF_PERICENTER":69.1908,"MEAN_ANOMALY":75.1753,"EPHEMERIS_TYPE":0,"CLASSIFICATION_TYPE":"U","NORAD_CAT_ID":65338,"ELEMENT_SET_NO":999,"REV_AT_EPOCH":406,"BSTAR":-0.020157349,"MEAN_MOTION_DOT":-0.01584082,"MEAN_MOTION_DDOT":0},{"OBJECT_NAME":"STARLINK-34777","OBJECT_ID":"2025-189S","EPOCH":"2025-09-14T06:00:02.000160","MEAN_MOTION":15.61904512,"ECCENTRICITY":0.00012857,"INCLINATION":53.1602,"RA_OF_ASC_NODE":310.9319,"ARG_OF_PERICENTER":73.2497,"MEAN_ANOMALY":73.0342,"EPHEMERIS_TYPE":0,"CLASSIFICATION_TYPE":"U","NORAD_CAT_ID":65339,"ELEMENT_SET_NO":999,"REV_AT_EPOCH":406,"BSTAR":-0.020124157,"MEAN_MOTION_DOT":-0.01581765,"MEAN_MOTION_DDOT":0},{"OBJECT_NAME":"STARLINK-35020","OBJECT_ID":"2025-189T","EPOCH":"2025-09-14T06:00:02.000160","MEAN_MOTION":15.61904176,"ECCENTRICITY":0.00011135,"INCLINATION":53.1599,"RA_OF_ASC_NODE":310.9281,"ARG_OF_PERICENTER":71.9686,"MEAN_ANOMALY":76.2314,"EPHEMERIS_TYPE":0,"CLASSIFICATION_TYPE":"U","NORAD_CAT_ID":65340,"ELEMENT_SET_NO":999,"REV_AT_EPOCH":400,"BSTAR":-0.020125004,"MEAN_MOTION_DOT":-0.01581713,"MEAN_MOTION_DDOT":0},{"OBJECT_NAME":"STARLINK-35016","OBJECT_ID":"2025-189U","EPOCH":"2025-09-14T06:00:02.000160","MEAN_MOTION":15.61903253,"ECCENTRICITY":0.00013028,"INCLINATION":53.1601,"RA_OF_ASC_NODE":310.9235,"ARG_OF_PERICENTER":71.4903,"MEAN_ANOMALY":78.6278,"EPHEMERIS_TYPE":0,"CLASSIFICATION_TYPE":"U","NORAD_CAT_ID":65341,"ELEMENT_SET_NO":999,"REV_AT_EPOCH":400,"BSTAR":-0.020104397,"MEAN_MOTION_DOT":-0.01580328,"MEAN_MOTION_DDOT":0}]
