STARLINK-34902          
1 65326U 25189D   25257.25002315  .00105612  00000+0  11660-2 0  9996
2 65326  53.1598 310.9711 0000888 121.6049   5.5092 15.62273012  4064
STARLINK-34880          
1 65327U 25189E   25257.25002315 -.01581384  00000+0 -20120-1 0  9994
2 65327  53.1599 310.9921 0001191  70.4965  47.0360 15.61903660  4062
STARLINK-34885          
1 65328U 25189F   25257.25002315 -.01582317  00000+0 -20133-1 0  9996
2 65328  53.1596 310.9879 0001171  68.3693  51.0787 15.61904887  4008
STARLINK-34908          
1 65329U 25189G   25257.25002315 -.01580307  00000+0 -20104-1 0  9992
2 65329  53.1597 310.9761 0001213  68.3333  56.8654 15.61903776  4066
STARLINK-34864          
1 65330U 25189H   25257.25002315 -.01579888  00000+0 -20101-1 0  9993
2 65330  53.1599 310.9596 0001102  71.8189  61.0498 15.61901392  4067
STARLINK-34918          
1 65331U 25189J   25257.25002315 -.01582002  00000+0 -20128-1 0  9995
2 65331  53.1602 310.8794 0001266  70.0457 101.5617 15.61904553  4001
STARLINK-33890          
1 65332U 25189K   25257.25002315 -.01582119  00000+0 -20130-1 0  9998
2 65332  53.1601 310.8715 0001245  71.5903 103.8515 15.61904230  4007
STARLINK-34602          
1 65333U 25189L   25257.25002315 -.01582827  00000+0 -20139-1 0  9994
2 65333  53.1602 310.8868 0001246  72.0722  95.9711 15.61904901  4064
STARLINK-34878          
1 65334U 25189M   25257.25002315 -.01583565  00000+0 -20151-1 0  9999
2 65334  53.1599 310.9677 0001125  67.4809  61.5501 15.61905307  4066
STARLINK-34874          
1 65335U 25189N   25257.25002315 -.01582917  00000+0 -20140-1 0  9998
2 65335  53.1602 310.8745 0001340  75.5309  97.9943 15.61905274  4067
STARLINK-34835          
1 65336U 25189P   25257.25002315 -.01583890  00000+0 -20153-1 0  9994
2 65336  53.1604 310.9437 0001271  68.8041  71.7275 15.61906466  4062
STARLINK-34854          
1 65337U 25189Q   25257.25002315 -.01579945  00000+0 -20100-1 0  9993
2 65337  53.1602 310.9406 0001145  70.1713  72.2787 15.61903214  4005
STARLINK-34751          
1 65338U 25189R   25257.25002315 -.01584082  00000+0 -20157-1 0  9994
2 65338  53.1602 310.9358 0001181  69.1908  75.1753 15.61905608  4066
STARLINK-34777          
1 65339U 25189S   25257.25002315 -.01581765  00000+0 -20124-1 0  9994
2 65339  53.1602 310.9319 0001285  73.2497  73.0342 15.61904512  4062
STARLINK-35020          
1 65340U 25189T   25257.25002315 -.01581713  00000+0 -20125-1 0  9990
2 65340  53.1599 310.9281 0001113  71.9686  76.2314 15.61904176  4006
STARLINK-35016          
1 65341U 25189U   25257.25002315 -.01580328  00000+0 -20104-1 0  9999
2 65341  53.1601 310.9235 0001302  71.4903  78.6278 15.61903253  4007
